[{"OBJECT_NAME":"EUTELSAT 33B","OBJECT_ID":"2002-051A","EPOCH":"2026-03-07T02:06:58.352832","MEAN_MOTION":1.00200403,"ECCENTRICITY":0.0014244,"INCLINATION":8.7362,"RA_OF_ASC_NODE":60.9925,"ARG_OF_PERICENTER":322.1455,"MEAN_ANOMALY":210.7934,"EPHEMERIS_TYPE":0,"CLASSIFICATION_TYPE":"U","NORAD_CAT_ID":27554,"ELEMENT_SET_NO":999,"REV_AT_EPOCH":4777,"BSTAR":0,"MEAN_MOTION_DOT":1.46e-6,"MEAN_MOTION_DDOT":0},{"OBJECT_NAME":"NIMIQ 2","OBJECT_ID":"2002-062A","EPOCH":"2026-03-06T23:42:27.209952","MEAN_MOTION":1.00272969,"ECCENTRICITY":0.000654,"INCLINATION":9.21,"RA_OF_ASC_NODE":57.9543,"ARG_OF_PERICENTER":293.281,"MEAN_ANOMALY":59.8854,"EPHEMERIS_TYPE":0,"CLASSIFICATION_TYPE":"U","NORAD_CAT_ID":27632,"ELEMENT_SET_NO":999,"REV_AT_EPOCH":4315,"BSTAR":0,"MEAN_MOTION_DOT":-7.0e-7,"MEAN_MOTION_DDOT":0},{"OBJECT_NAME":"USA 167","OBJECT_ID":"2003-008A","EPOCH":"2026-03-06T13:22:37.832448","MEAN_MOTION":1.00271476,"ECCENTRICITY":0.00058401,"INCLINATION":10.7582,"RA_OF_ASC_NODE":44.3144,"ARG_OF_PERICENTER":292.4779,"MEAN_ANOMALY":266.3832,"EPHEMERIS_TYPE":0,"CLASSIFICATION_TYPE":"U","NORAD_CAT_ID":27691,"ELEMENT_SET_NO":999,"REV_AT_EPOCH":574,"BSTAR":0,"MEAN_MOTION_DOT":2.0e-8,"MEAN_MOTION_DDOT":0},{"OBJECT_NAME":"TITAN 4 CENTAUR R/B","OBJECT_ID":"2003-012B","EPOCH":"2026-03-07T02:06:19.183392","MEAN_MOTION":1.00577004,"ECCENTRICITY":0.0024751,"INCLINATION":11.0387,"RA_OF_ASC_NODE":23.8927,"ARG_OF_PERICENTER":276.4684,"MEAN_ANOMALY":83.2668,"EPHEMERIS_TYPE":0,"CLASSIFICATION_TYPE":"U","NORAD_CAT_ID":27712,"ELEMENT_SET_NO":999,"REV_AT_EPOCH":2476,"BSTAR":0,"MEAN_MOTION_DOT":9.8e-7,"MEAN_MOTION_DDOT":0},{"OBJECT_NAME":"INSAT-3A","OBJECT_ID":"2003-013A","EPOCH":"2026-03-06T21:26:43.699776","MEAN_MOTION":0.99810054,"ECCENTRICITY":0.0011055,"INCLINATION":8.5847,"RA_OF_ASC_NODE":62.1146,"ARG_OF_PERICENTER":304.7559,"MEAN_ANOMALY":254.7524,"EPHEMERIS_TYPE":0,"CLASSIFICATION_TYPE":"U","NORAD_CAT_ID":27714,"ELEMENT_SET_NO":999,"REV_AT_EPOCH":8370,"BSTAR":0,"MEAN_MOTION_DOT":-3.43e-6,"MEAN_MOTION_DDOT":0},{"OBJECT_NAME":"ASIASAT 4","OBJECT_ID":"2003-014A","EPOCH":"2026-03-06T18:39:38.672352","MEAN_MOTION":1.00272877,"ECCENTRICITY":0.0002661,"INCLINATION":4.4424,"RA_OF_ASC_NODE":77.0343,"ARG_OF_PERICENTER":266.6059,"MEAN_ANOMALY":248.3221,"EPHEMERIS_TYPE":0,"CLASSIFICATION_TYPE":"U","NORAD_CAT_ID":27718,"ELEMENT_SET_NO":999,"REV_AT_EPOCH":4427,"BSTAR":0,"MEAN_MOTION_DOT":-2.24e-6,"MEAN_MOTION_DDOT":0},{"OBJECT_NAME":"SL-12 R/B(2)","OBJECT_ID":"2003-015F","EPOCH":"2026-03-06T12:35:48.216768","MEAN_MOTION":1.0028584,"ECCENTRICITY":0.00098932,"INCLINATION":12.6352,"RA_OF_ASC_NODE":21.1391,"ARG_OF_PERICENTER":31.9789,"MEAN_ANOMALY":71.2262,"EPHEMERIS_TYPE":0,"CLASSIFICATION_TYPE":"U","NORAD_CAT_ID":27780,"ELEMENT_SET_NO":999,"REV_AT_EPOCH":8347,"BSTAR":0,"MEAN_MOTION_DOT":-3.45e-6,"MEAN_MOTION_DDOT":0},{"OBJECT_NAME":"GSAT-2","OBJECT_ID":"2003-018A","EPOCH":"2026-03-06T22:56:54.079008","MEAN_MOTION":0.99841454,"ECCENTRICITY":0.001155,"INCLINATION":10.9778,"RA_OF_ASC_NODE":42.5637,"ARG_OF_PERICENTER":335.0036,"MEAN_ANOMALY":222.8798,"EPHEMERIS_TYPE":0,"CLASSIFICATION_TYPE":"U","NORAD_CAT_ID":27807,"ELEMENT_SET_NO":999,"REV_AT_EPOCH":8341,"BSTAR":0,"MEAN_MOTION_DOT":-1.6e-6,"MEAN_MOTION_DDOT":0},{"OBJECT_NAME":"HELLAS-SAT 2","OBJECT_ID":"2003-020A","EPOCH":"2026-03-06T19:02:42.722592","MEAN_MOTION":1.00272751,"ECCENTRICITY":0.0007645,"INCLINATION":7.1003,"RA_OF_ASC_NODE":69.1037,"ARG_OF_PERICENTER":245.9082,"MEAN_ANOMALY":125.1487,"EPHEMERIS_TYPE":0,"CLASSIFICATION_TYPE":"U","NORAD_CAT_ID":27811,"ELEMENT_SET_NO":999,"REV_AT_EPOCH":4182,"BSTAR":0,"MEAN_MOTION_DOT":-8.6e-7,"MEAN_MOTION_DDOT":0},{"OBJECT_NAME":"THURAYA-2","OBJECT_ID":"2003-026A","EPOCH":"2026-03-07T00:26:08.021760","MEAN_MOTION":1.00272383,"ECCENTRICITY":0.0003455,"INCLINATION":8.6818,"RA_OF_ASC_NODE":32.3718,"ARG_OF_PERICENTER":311.2803,"MEAN_ANOMALY":231.6132,"EPHEMERIS_TYPE":0,"CLASSIFICATION_TYPE":"U","NORAD_CAT_ID":27825,"ELEMENT_SET_NO":999,"REV_AT_EPOCH":8332,"BSTAR":0,"MEAN_MOTION_DOT":1.24e-6,"MEAN_MOTION_DDOT":0},{"OBJECT_NAME":"OPTUS C1","OBJECT_ID":"2003-028B","EPOCH":"2026-03-06T19:49:53.198688","MEAN_MOTION":1.00271437,"ECCENTRICITY":0.0006224,"INCLINATION":6.6337,"RA_OF_ASC_NODE":70.647,"ARG_OF_PERICENTER":279.2739,"MEAN_ANOMALY":267.8435,"EPHEMERIS_TYPE":0,"CLASSIFICATION_TYPE":"U","NORAD_CAT_ID":27831,"ELEMENT_SET_NO":999,"REV_AT_EPOCH":5203,"BSTAR":0,"MEAN_MOTION_DOT":-1.53e-6,"MEAN_MOTION_DDOT":0},{"OBJECT_NAME":"USA 170","OBJECT_ID":"2003-040A","EPOCH":"2026-03-07T00:18:51.712128","MEAN_MOTION":1.00277904,"ECCENTRICITY":0.0001486,"INCLINATION":10.2845,"RA_OF_ASC_NODE":48.9015,"ARG_OF_PERICENTER":306.1492,"MEAN_ANOMALY":198.6733,"EPHEMERIS_TYPE":0,"CLASSIFICATION_TYPE":"U","NORAD_CAT_ID":27875,"ELEMENT_SET_NO":999,"REV_AT_EPOCH":3197,"BSTAR":0,"MEAN_MOTION_DOT":1.26e-6,"MEAN_MOTION_DDOT":0},{"OBJECT_NAME":"IABS R/B","OBJECT_ID":"2003-040C","EPOCH":"2026-03-04T06:24:11.575296","MEAN_MOTION":1.00742032,"ECCENTRICITY":0.0012609,"INCLINATION":13.3079,"RA_OF_ASC_NODE":13.2325,"ARG_OF_PERICENTER":312.0982,"MEAN_ANOMALY":47.8048,"EPHEMERIS_TYPE":0,"CLASSIFICATION_TYPE":"U","NORAD_CAT_ID":27877,"ELEMENT_SET_NO":999,"REV_AT_EPOCH":2489,"BSTAR":0,"MEAN_MOTION_DOT":-3.65e-6,"MEAN_MOTION_DDOT":0},{"OBJECT_NAME":"GALAXY 13 (HORIZONS-1)","OBJECT_ID":"2003-044A","EPOCH":"2026-03-07T03:38:38.854176","MEAN_MOTION":1.00273807,"ECCENTRICITY":0.0002192,"INCLINATION":1.1541,"RA_OF_ASC_NODE":85.251,"ARG_OF_PERICENTER":264.6324,"MEAN_ANOMALY":79.6372,"EPHEMERIS_TYPE":0,"CLASSIFICATION_TYPE":"U","NORAD_CAT_ID":27954,"ELEMENT_SET_NO":999,"REV_AT_EPOCH":4554,"BSTAR":0,"MEAN_MOTION_DOT":1.3e-6,"MEAN_MOTION_DDOT":0},{"OBJECT_NAME":"YAMAL 202","OBJECT_ID":"2003-053A","EPOCH":"2026-03-06T19:52:07.985280","MEAN_MOTION":1.00272203,"ECCENTRICITY":0.000556,"INCLINATION":6.0843,"RA_OF_ASC_NODE":72.1865,"ARG_OF_PERICENTER":242.7177,"MEAN_ANOMALY":311.1579,"EPHEMERIS_TYPE":0,"CLASSIFICATION_TYPE":"U","NORAD_CAT_ID":28089,"ELEMENT_SET_NO":999,"REV_AT_EPOCH":8167,"BSTAR":0,"MEAN_MOTION_DOT":-8.3e-7,"MEAN_MOTION_DDOT":0},{"OBJECT_NAME":"YAMAL 201","OBJECT_ID":"2003-053B","EPOCH":"2026-03-07T00:32:14.935776","MEAN_MOTION":1.00304819,"ECCENTRICITY":0.0001589,"INCLINATION":9.3793,"RA_OF_ASC_NODE":56.5825,"ARG_OF_PERICENTER":222.8138,"MEAN_ANOMALY":318.5792,"EPHEMERIS_TYPE":0,"CLASSIFICATION_TYPE":"U","NORAD_CAT_ID":28094,"ELEMENT_SET_NO":999,"REV_AT_EPOCH":8385,"BSTAR":0,"MEAN_MOTION_DOT":-1.0e-7,"MEAN_MOTION_DDOT":0},{"OBJECT_NAME":"UFO 11 (USA 174)","OBJECT_ID":"2003-057A","EPOCH":"2026-03-06T23:51:38.740032","MEAN_MOTION":1.00272295,"ECCENTRICITY":0.000348,"INCLINATION":8.8492,"RA_OF_ASC_NODE":34.3145,"ARG_OF_PERICENTER":293.1684,"MEAN_ANOMALY":270.5594,"EPHEMERIS_TYPE":0,"CLASSIFICATION_TYPE":"U","NORAD_CAT_ID":28117,"ELEMENT_SET_NO":999,"REV_AT_EPOCH":8142,"BSTAR":0,"MEAN_MOTION_DOT":-1.04e-6,"MEAN_MOTION_DDOT":0},{"OBJECT_NAME":"SL-12 R/B(2)","OBJECT_ID":"2003-060D","EPOCH":"2026-03-06T22:45:40.154688","MEAN_MOTION":1.00255397,"ECCENTRICITY":0.001874,"INCLINATION":13.4756,"RA_OF_ASC_NODE":14.4952,"ARG_OF_PERICENTER":235.4156,"MEAN_ANOMALY":308.1037,"EPHEMERIS_TYPE":0,"CLASSIFICATION_TYPE":"U","NORAD_CAT_ID":28139,"ELEMENT_SET_NO":999,"REV_AT_EPOCH":8100,"BSTAR":0,"MEAN_MOTION_DOT":7.9e-7,"MEAN_MOTION_DDOT":0},{"OBJECT_NAME":"USA 176 (DSP 22)","OBJECT_ID":"2004-004A","EPOCH":"2026-03-06T22:03:25.182144","MEAN_MOTION":1.00272683,"ECCENTRICITY":0.0002453,"INCLINATION":11.9238,"RA_OF_ASC_NODE":26.8155,"ARG_OF_PERICENTER":279.2199,"MEAN_ANOMALY":93.0257,"EPHEMERIS_TYPE":0,"CLASSIFICATION_TYPE":"U","NORAD_CAT_ID":28158,"ELEMENT_SET_NO":999,"REV_AT_EPOCH":3191,"BSTAR":0,"MEAN_MOTION_DOT":-1.61e-6,"MEAN_MOTION_DDOT":0},{"OBJECT_NAME":"IUS R/B(2)","OBJECT_ID":"2004-004D","EPOCH":"2026-03-06T03:48:48.820032","MEAN_MOTION":0.99830335,"ECCENTRICITY":0.00042666,"INCLINATION":12.0352,"RA_OF_ASC_NODE":27.0221,"ARG_OF_PERICENTER":11.4758,"MEAN_ANOMALY":348.5523,"EPHEMERIS_TYPE":0,"CLASSIFICATION_TYPE":"U","NORAD_CAT_ID":28161,"ELEMENT_SET_NO":999,"REV_AT_EPOCH":2436,"BSTAR":0,"MEAN_MOTION_DOT":-1.67e-6,"MEAN_MOTION_DDOT":0},{"OBJECT_NAME":"ABS-4 (MOBISAT-1)","OBJECT_ID":"2004-007A","EPOCH":"2026-03-07T02:13:42.705696","MEAN_MOTION":1.00272627,"ECCENTRICITY":0.0005375,"INCLINATION":5.7832,"RA_OF_ASC_NODE":73.2477,"ARG_OF_PERICENTER":275.9322,"MEAN_ANOMALY":270.0186,"EPHEMERIS_TYPE":0,"CLASSIFICATION_TYPE":"U","NORAD_CAT_ID":28184,"ELEMENT_SET_NO":999,"REV_AT_EPOCH":5131,"BSTAR":0,"MEAN_MOTION_DOT":3.8e-7,"MEAN_MOTION_DDOT":0},{"OBJECT_NAME":"EUTELSAT 139 WEST A","OBJECT_ID":"2004-008A","EPOCH":"2026-03-07T02:55:12.028800","MEAN_MOTION":1.00832825,"ECCENTRICITY":0.0001525,"INCLINATION":5.5696,"RA_OF_ASC_NODE":73.2316,"ARG_OF_PERICENTER":29.472,"MEAN_ANOMALY":74.0475,"EPHEMERIS_TYPE":0,"CLASSIFICATION_TYPE":"U","NORAD_CAT_ID":28187,"ELEMENT_SET_NO":999,"REV_AT_EPOCH":8033,"BSTAR":0,"MEAN_MOTION_DOT":-1.45e-6,"MEAN_MOTION_DDOT":0},{"OBJECT_NAME":"RADUGA-1 7","OBJECT_ID":"2004-010A","EPOCH":"2026-03-06T22:47:24.988128","MEAN_MOTION":1.00171897,"ECCENTRICITY":0.0005274,"INCLINATION":13.5591,"RA_OF_ASC_NODE":21.5738,"ARG_OF_PERICENTER":245.1646,"MEAN_ANOMALY":297.9069,"EPHEMERIS_TYPE":0,"CLASSIFICATION_TYPE":"U","NORAD_CAT_ID":28194,"ELEMENT_SET_NO":999,"REV_AT_EPOCH":8039,"BSTAR":0,"MEAN_MOTION_DOT":5.4e-7,"MEAN_MOTION_DDOT":0},{"OBJECT_NAME":"SL-12 R/B(2)","OBJECT_ID":"2004-015D","EPOCH":"2026-03-07T01:53:38.743296","MEAN_MOTION":1.00707569,"ECCENTRICITY":0.0017666,"INCLINATION":13.2329,"RA_OF_ASC_NODE":15.1301,"ARG_OF_PERICENTER":325.5467,"MEAN_ANOMALY":31.7175,"EPHEMERIS_TYPE":0,"CLASSIFICATION_TYPE":"U","NORAD_CAT_ID":28240,"ELEMENT_SET_NO":999,"REV_AT_EPOCH":8037,"BSTAR":0,"MEAN_MOTION_DOT":7.2e-7,"MEAN_MOTION_DDOT":0}]
